{
    "links": {
        "self": "http://www.neowsapp.com/rest/v1/neo/3879250?api_key=iIulBulltgU6a56xZRHN4H3l9WmuAYTsLGpBGhQ2"
    },
    "id": "3879250",
    "neo_reference_id": "3879250",
    "name": "(2019 UH)",
    "designation": "2019 UH",
    "nasa_jpl_url": "http://ssd.jpl.nasa.gov/sbdb.cgi?sstr=3879250",
    "absolute_magnitude_h": 25.7,
    "estimated_diameter": {
        "kilometers": {
            "estimated_diameter_min": 0.0192555078,
            "estimated_diameter_max": 0.0430566244
        },
        "meters": {
            "estimated_diameter_min": 19.2555078188,
            "estimated_diameter_max": 43.0566244241
        },
        "miles": {
            "estimated_diameter_min": 0.0119648141,
            "estimated_diameter_max": 0.0267541378
        },
        "feet": {
            "estimated_diameter_min": 63.1742402722,
            "estimated_diameter_max": 141.2618956756
        }
    },
    "is_potentially_hazardous_asteroid": false,
    "close_approach_data": [
        {
            "close_approach_date": "2019-10-24",
            "close_approach_date_full": "2019-Oct-24 00:47",
            "epoch_date_close_approach": 1571878020000,
            "relative_velocity": {
                "kilometers_per_second": "13.2149734466",
                "kilometers_per_hour": "47573.9044076228",
                "miles_per_hour": "29560.5741026143"
            },
            "miss_distance": {
                "astronomical": "0.0127908731",
                "lunar": "4.9756496359",
                "kilometers": "1913487.371200297",
                "miles": "1188985.9184542186"
            },
            "orbiting_body": "Earth"
        }
    ],
    "orbital_data": {
        "orbit_id": "3",
        "orbit_determination_date": "2019-10-24 06:06:44",
        "first_observation_date": "2019-10-18",
        "last_observation_date": "2019-10-23",
        "data_arc_in_days": 5,
        "observations_used": 61,
        "orbit_uncertainty": "7",
        "minimum_orbit_intersection": ".0125429",
        "jupiter_tisserand_invariant": "4.110",
        "epoch_osculation": "2459000.5",
        "eccentricity": ".422261862428825",
        "semi_major_axis": "1.652187141938158",
        "inclination": "19.93994607386868",
        "ascending_node_longitude": "208.8669438473659",
        "orbital_period": "775.6883767154839",
        "perihelion_distance": ".9545315223023941",
        "perihelion_argument": "214.9315157252968",
        "aphelion_distance": "2.349842761573923",
        "perihelion_time": "2458808.420128003933",
        "mean_anomaly": "89.14501750223788",
        "mean_motion": ".4641038989450335",
        "equinox": "J2000",
        "orbit_class": {
            "orbit_class_type": "APO",
            "orbit_class_description": "Near-Earth asteroid orbits which cross the Earth’s orbit similar to that of 1862 Apollo",
            "orbit_class_range": "a (semi-major axis) > 1.0 AU; q (perihelion) < 1.017 AU"
        }
    },
    "is_sentry_object": false
}